{"type": "FeatureCollection", "features": [{"type": "Feature", "properties": {"norad_id": 24876, "name": "GPS BIIR-2  (PRN 13)", "group": "gnss", "lat": 2.982013502698806, "lon": 107.46003297701391, "alt_km": 20026.837760011345, "timestamp": "2025-12-23T16:57:12.592887+00:00", "meta": {"OBJECT_NAME": "GPS BIIR-2  (PRN 13)", "OBJECT_ID": "1997-035A", "EPOCH": "2025-12-22T04:56:13.490880", "MEAN_MOTION": 2.00563727, "ECCENTRICITY": 0.00968316, "INCLINATION": 55.8997, "RA_OF_ASC_NODE": 105.4987, "ARG_OF_PERICENTER": 56.961, "MEAN_ANOMALY": 303.9513, "EPHEMERIS_TYPE": 0, "CLASSIFICATION_TYPE": "U", "NORAD_CAT_ID": 24876, "ELEMENT_SET_NO": 999, "REV_AT_EPOCH": 20840, "BSTAR": 0, "MEAN_MOTION_DOT": 1.2e-07, "MEAN_MOTION_DDOT": 0}, "tle": {"line1": "1 24876U 97035A   25356.20571170  .00000012  00000+0  00000+0 0  9996", "line2": "2 24876  55.8997 105.4987 0096831  56.9610 303.9513  2.00563727208400"}}, "geometry": {"type": "Point", "coordinates": [107.46003297701391, 2.982013502698806]}}, {"type": "Feature", "properties": {"norad_id": 26360, "name": "GPS BIIR-4  (PRN 20)", "group": "gnss", "lat": 54.55183080673287, "lon": 127.28027554181644, "alt_km": 20262.02918706369, "timestamp": "2025-12-23T16:57:12.592940+00:00", "meta": {"OBJECT_NAME": "GPS BIIR-4  (PRN 20)", "OBJECT_ID": "2000-025A", "EPOCH": "2025-12-23T02:03:28.748160", "MEAN_MOTION": 2.00566833, "ECCENTRICITY": 0.00388929, "INCLINATION": 55.0513, "RA_OF_ASC_NODE": 26.4195, "ARG_OF_PERICENTER": 242.9692, "MEAN_ANOMALY": 125.4419, "EPHEMERIS_TYPE": 0, "CLASSIFICATION_TYPE": "U", "NORAD_CAT_ID": 26360, "ELEMENT_SET_NO": 999, "REV_AT_EPOCH": 18774, "BSTAR": 0, "MEAN_MOTION_DOT": -5.8e-07, "MEAN_MOTION_DDOT": 0}, "tle": {"line1": "1 26360U 00025A   25357.08574940 -.00000058  00000+0  00000+0 0  9995", "line2": "2 26360  55.0513  26.4195 0038892 242.9692 125.4419  2.00566833187745"}}, "geometry": {"type": "Point", "coordinates": [127.28027554181644, 54.55183080673287]}}, {"type": "Feature", "properties": {"norad_id": 26407, "name": "GPS BIIR-5  (PRN 22)", "group": "gnss", "lat": -47.30921825845072, "lon": 172.456212735882, "alt_km": 19856.19987129204, "timestamp": "2025-12-23T16:57:12.592960+00:00", "meta": {"OBJECT_NAME": "GPS BIIR-5  (PRN 22)", "OBJECT_ID": "2000-040A", "EPOCH": "2025-12-23T00:54:29.755296", "MEAN_MOTION": 2.00568094, "ECCENTRICITY": 0.01254433, "INCLINATION": 54.8886, "RA_OF_ASC_NODE": 222.1595, "ARG_OF_PERICENTER": 301.9789, "MEAN_ANOMALY": 231.519, "EPHEMERIS_TYPE": 0, "CLASSIFICATION_TYPE": "U", "NORAD_CAT_ID": 26407, "ELEMENT_SET_NO": 999, "REV_AT_EPOCH": 18641, "BSTAR": 0, "MEAN_MOTION_DOT": 6.6e-07, "MEAN_MOTION_DDOT": 0}, "tle": {"line1": "1 26407U 00040A   25357.03784439  .00000066  00000+0  00000+0 0  9993", "line2": "2 26407  54.8886 222.1595 0125443 301.9789 231.5190  2.00568094186417"}}, "geometry": {"type": "Point", "coordinates": [172.456212735882, -47.30921825845072]}}, {"type": "Feature", "properties": {"norad_id": 27663, "name": "GPS BIIR-8  (PRN 16)", "group": "gnss", "lat": 51.39119082185705, "lon": -76.41976253785288, "alt_km": 19807.400792298344, "timestamp": "2025-12-23T16:57:12.592976+00:00", "meta": {"OBJECT_NAME": "GPS BIIR-8  (PRN 16)", "OBJECT_ID": "2003-005A", "EPOCH": "2025-12-22T15:01:01.940160", "MEAN_MOTION": 2.00570357, "ECCENTRICITY": 0.0147807, "INCLINATION": 54.9212, "RA_OF_ASC_NODE": 221.985, "ARG_OF_PERICENTER": 51.9453, "MEAN_ANOMALY": 319.9429, "EPHEMERIS_TYPE": 0, "CLASSIFICATION_TYPE": "U", "NORAD_CAT_ID": 27663, "ELEMENT_SET_NO": 999, "REV_AT_EPOCH": 16777, "BSTAR": 0, "MEAN_MOTION_DOT": 6.7e-07, "MEAN_MOTION_DDOT": 0}, "tle": {"line1": "1 27663U 03005A   25356.62571690  .00000067  00000+0  00000+0 0  9990", "line2": "2 27663  54.9212 221.9850 0147807  51.9453 319.9429  2.00570357167774"}}, "geometry": {"type": "Point", "coordinates": [-76.41976253785288, 51.39119082185705]}}, {"type": "Feature", "properties": {"norad_id": 28190, "name": "GPS BIIR-11 (PRN 19)", "group": "gnss", "lat": -39.974539627684585, "lon": 138.71883466250972, "alt_km": 20057.34275120544, "timestamp": "2025-12-23T16:57:12.592989+00:00", "meta": {"OBJECT_NAME": "GPS BIIR-11 (PRN 19)", "OBJECT_ID": "2004-009A", "EPOCH": "2025-12-22T01:59:41.237952", "MEAN_MOTION": 2.00560473, "ECCENTRICITY": 0.01084919, "INCLINATION": 54.9772, "RA_OF_ASC_NODE": 282.8425, "ARG_OF_PERICENTER": 167.7907, "MEAN_ANOMALY": 330.6754, "EPHEMERIS_TYPE": 0, "CLASSIFICATION_TYPE": "U", "NORAD_CAT_ID": 28190, "ELEMENT_SET_NO": 999, "REV_AT_EPOCH": 15939, "BSTAR": 0, "MEAN_MOTION_DOT": -2.4e-07, "MEAN_MOTION_DDOT": 0}, "tle": {"line1": "1 28190U 04009A   25356.08311618 -.00000024  00000+0  00000+0 0  9997", "line2": "2 28190  54.9772 282.8425 0108491 167.7907 330.6754  2.00560473159399"}}, "geometry": {"type": "Point", "coordinates": [138.71883466250972, -39.974539627684585]}}, {"type": "Feature", "properties": {"norad_id": 28474, "name": "GPS BIIR-13 (PRN 02)", "group": "gnss", "lat": -50.36892132494954, "lon": -85.01068471405617, "alt_km": 19757.066283868295, "timestamp": "2025-12-23T16:57:12.593003+00:00", "meta": {"OBJECT_NAME": "GPS BIIR-13 (PRN 02)", "OBJECT_ID": "2004-045A", "EPOCH": "2025-12-21T13:21:16.085088", "MEAN_MOTION": 2.00569985, "ECCENTRICITY": 0.0170919, "INCLINATION": 55.2363, "RA_OF_ASC_NODE": 332.0513, "ARG_OF_PERICENTER": 309.6441, "MEAN_ANOMALY": 228.908, "EPHEMERIS_TYPE": 0, "CLASSIFICATION_TYPE": "U", "NORAD_CAT_ID": 28474, "ELEMENT_SET_NO": 999, "REV_AT_EPOCH": 15486, "BSTAR": 0, "MEAN_MOTION_DOT": -7.1e-07, "MEAN_MOTION_DDOT": 0}, "tle": {"line1": "1 28474U 04045A   25355.55643617 -.00000071  00000+0  00000+0 0  9992", "line2": "2 28474  55.2363 332.0513 0170919 309.6441 228.9080  2.00569985154869"}}, "geometry": {"type": "Point", "coordinates": [-85.01068471405617, -50.36892132494954]}}, {"type": "Feature", "properties": {"norad_id": 28874, "name": "GPS BIIRM-1 (PRN 17)", "group": "gnss", "lat": -49.994466705049746, "lon": 156.65739760707874, "alt_km": 19936.696442395518, "timestamp": "2025-12-23T16:57:12.593016+00:00", "meta": {"OBJECT_NAME": "GPS BIIRM-1 (PRN 17)", "OBJECT_ID": "2005-038A", "EPOCH": "2025-12-23T02:44:01.154400", "MEAN_MOTION": 2.00577746, "ECCENTRICITY": 0.01313202, "INCLINATION": 55.0227, "RA_OF_ASC_NODE": 280.2833, "ARG_OF_PERICENTER": 293.7944, "MEAN_ANOMALY": 248.5863, "EPHEMERIS_TYPE": 0, "CLASSIFICATION_TYPE": "U", "NORAD_CAT_ID": 28874, "ELEMENT_SET_NO": 999, "REV_AT_EPOCH": 14830, "BSTAR": 0, "MEAN_MOTION_DOT": -2e-07, "MEAN_MOTION_DDOT": 0}, "tle": {"line1": "1 28874U 05038A   25357.11390225 -.00000020  00000+0  00000+0 0  9991", "line2": "2 28874  55.0227 280.2833 0131320 293.7944 248.5863  2.00577746148306"}}, "geometry": {"type": "Point", "coordinates": [156.65739760707874, -49.994466705049746]}}, {"type": "Feature", "properties": {"norad_id": 28899, "name": "INMARSAT 4-F2 (SOUTHPAN/PRN 122)", "group": "gnss", "lat": 4.874863085816398, "lon": 130.27879216765209, "alt_km": 35793.57704402744, "timestamp": "2025-12-23T16:57:12.593030+00:00", "meta": {"OBJECT_NAME": "INMARSAT 4-F2 (SOUTHPAN/PRN 122)", "OBJECT_ID": "2005-044A", "EPOCH": "2025-12-22T22:24:23.828832", "MEAN_MOTION": 1.00275286, "ECCENTRICITY": 0.00025844, "INCLINATION": 4.863, "RA_OF_ASC_NODE": 43.707, "ARG_OF_PERICENTER": 232.1898, "MEAN_ANOMALY": 295.4415, "EPHEMERIS_TYPE": 0, "CLASSIFICATION_TYPE": "U", "NORAD_CAT_ID": 28899, "ELEMENT_SET_NO": 999, "REV_AT_EPOCH": 7375, "BSTAR": 0, "MEAN_MOTION_DOT": -2.41e-06, "MEAN_MOTION_DDOT": 0}, "tle": {"line1": "1 28899U 05044A   25356.93360913 -.00000241  00000+0  00000+0 0  9990", "line2": "2 28899   4.8630  43.7070 0002584 232.1898 295.4415  1.00275286 73755"}}, "geometry": {"type": "Point", "coordinates": [130.27879216765209, 4.874863085816398]}}, {"type": "Feature", "properties": {"norad_id": 29486, "name": "GPS BIIRM-2 (PRN 31)", "group": "gnss", "lat": 21.194535492257376, "lon": -37.654492912177986, "alt_km": 20234.192850087467, "timestamp": "2025-12-23T16:57:12.593043+00:00", "meta": {"OBJECT_NAME": "GPS BIIRM-2 (PRN 31)", "OBJECT_ID": "2006-042A", "EPOCH": "2025-12-21T12:25:39.335232", "MEAN_MOTION": 2.00553827, "ECCENTRICITY": 0.01073004, "INCLINATION": 54.6951, "RA_OF_ASC_NODE": 158.3926, "ARG_OF_PERICENTER": 52.1628, "MEAN_ANOMALY": 320.0686, "EPHEMERIS_TYPE": 0, "CLASSIFICATION_TYPE": "U", "NORAD_CAT_ID": 29486, "ELEMENT_SET_NO": 999, "REV_AT_EPOCH": 14083, "BSTAR": 0, "MEAN_MOTION_DOT": 7.1e-07, "MEAN_MOTION_DDOT": 0}, "tle": {"line1": "1 29486U 06042A   25355.51781638  .00000071  00000+0  00000+0 0  9996", "line2": "2 29486  54.6951 158.3926 0107300  52.1628 320.0686  2.00553827140833"}}, "geometry": {"type": "Point", "coordinates": [-37.654492912177986, 21.194535492257376]}}, {"type": "Feature", "properties": {"norad_id": 29601, "name": "GPS BIIRM-3 (PRN 12)", "group": "gnss", "lat": -25.455611262720293, "lon": 60.4806687587147, "alt_km": 20314.232644909294, "timestamp": "2025-12-23T16:57:12.593055+00:00", "meta": {"OBJECT_NAME": "GPS BIIRM-3 (PRN 12)", "OBJECT_ID": "2006-052A", "EPOCH": "2025-12-22T22:00:58.169952", "MEAN_MOTION": 2.00574295, "ECCENTRICITY": 0.0087996, "INCLINATION": 54.9685, "RA_OF_ASC_NODE": 220.9942, "ARG_OF_PERICENTER": 87.562, "MEAN_ANOMALY": 273.5353, "EPHEMERIS_TYPE": 0, "CLASSIFICATION_TYPE": "U", "NORAD_CAT_ID": 29601, "ELEMENT_SET_NO": 999, "REV_AT_EPOCH": 13987, "BSTAR": 0, "MEAN_MOTION_DOT": 6.8e-07, "MEAN_MOTION_DDOT": 0}, "tle": {"line1": "1 29601U 06052A   25356.91733993  .00000068  00000+0  00000+0 0  9998", "line2": "2 29601  54.9685 220.9942 0087996  87.5620 273.5353  2.00574295139872"}}, "geometry": {"type": "Point", "coordinates": [60.4806687587147, -25.455611262720293]}}]}